ONEWEB-0647             
1 56079U 23043AK  24093.90620317  .00000083  00000+0  18568-3 0  9996
2 56079  87.9002  59.4848 0001898  72.1689 287.9648 13.15549298 50547
ONEWEB-0651             
1 56080U 23043AL  24094.12962421  .00000158  00000+0  38515-3 0  9995
2 56080  87.9004  59.4147 0002226  73.7128 286.4247 13.15549149 50571
ONEWEB-0718             
1 56081U 23043AM  24094.20091649  .00000233  00000+0  58384-3 0  9990
2 56081  87.9004  59.3875 0002142  99.9609 260.1763 13.15546457 51505
GSLV R/B                
1 56082U 23043AN  24093.77739842  .00110675  00000+0  86641-3 0  9995
2 56082  87.4080   8.2980 0012445  23.5611 336.6228 15.71161977 57840
ONEWEB-0561             
1 56710U 23068A   24093.97963036  .00000084  00000+0  17604-3 0  9991
2 56710  88.2878  74.3370 0001330  76.1643 283.9639 13.20772415 43919
ONEWEB-0668             
1 56711U 23068B   24094.11684008  .00000303  00000+0  75914-3 0  9990
2 56711  87.9130  29.0160 0002311  94.2274 265.9122 13.16597136 46541
ONEWEB-0676             
1 56712U 23068C   24093.86351550 -.00000178  00000+0 -49971-3 0  9991
2 56712  87.9136  29.0642 0001926  63.4316 296.7013 13.16593731 45737
ONEWEB-0677             
1 56713U 23068D   24093.88584472  .00000058  00000+0  89185-4 0  9992
2 56713  88.3217  72.7527 0002371  72.3830 287.7570 13.34780881 43409
